{
  "type": "FeatureCollection",
  "features": [
    {
      "type": "Feature",
      "properties": {
        "id": "1",
        "name": "Точка 1",
        "Номер": "00ЦБ-000001",
        "Сумма": 100200.0,
        "Стоимость Материала": 90100.0,
        "Стоимость Услуги": 10100.0,
        "Дата Установки": "20.01.2025",
        "Проблемный": false,
        "Адрес Доставки": "Московская область Восточная улица, 13, село Ямкино, Богородский городской округ 52 КМ ОТ МКАД",
        "Номер Подразделения": "Мобильный 01",
        "Вид Забора": "Профлист/штакет шахматка"
      },
      "geometry": {
        "type": "Point",
        "coordinates": [
          38.413408,
          55.930715
        ]
      }
    },
    {
      "type": "Feature",
      "properties": {
        "id": "2",
        "name": "Точка 2",
        "Номер": "00ЦБ-000002",
        "Сумма": 100400.0,
        "Стоимость Материала": 90200.0,
        "Стоимость Услуги": 10200.0,
        "Дата Установки": "20.01.2025",
        "Проблемный": false,
        "Адрес Доставки": "Россия, Московская область, городской округ Воскресенск, село Барановское, Вишнёвая улица, 29",
        "Номер Подразделения": "Мобильный 02",
        "Вид Забора": "Штакетник"
      },
      "geometry": {
        "type": "Point",
        "coordinates": [
          38.742506,
          55.403676
        ]
      }
    },
    {
      "type": "Feature",
      "properties": {
        "id": "4",
        "name": "Точка 4",
        "Номер": "00ЦБ-000004",
        "Сумма": 100800.0,
        "Стоимость Материала": 90400.0,
        "Стоимость Услуги": 10400.0,
        "Дата Установки": "28.01.2025",
        "Проблемный": false,
        "Адрес Доставки": "Россия, Московская область, муниципальный округ Шатура, село Митинская, 21",
        "Номер Подразделения": "Мобильный 04",
        "Вид Забора": "Штакетник"
      },
      "geometry": {
        "type": "Point",
        "coordinates": [
          39.768537,
          55.480783
        ]
      }
    },
    {
      "type": "Feature",
      "properties": {
        "id": "5",
        "name": "Точка 5",
        "Номер": "00ЦБ-000005",
        "Сумма": 101000.0,
        "Стоимость Материала": 90500.0,
        "Стоимость Услуги": 10500.0,
        "Дата Установки": "27.01.2025",
        "Проблемный": false,
        "Адрес Доставки": "квартал А3, деревня Романьково, сельское поселение Демидовское, Заокский район, Тульская область",
        "Номер Подразделения": "Мобильный 05",
        "Вид Забора": null
      },
      "geometry": {
        "type": "Point",
        "coordinates": [
          37.388091,
          54.587619
        ]
      }
    },
    {
      "type": "Feature",
      "properties": {
        "id": "6",
        "name": "Точка 6",
        "Номер": "00ЦБ-000006",
        "Сумма": 101200.0,
        "Стоимость Материала": 90600.0,
        "Стоимость Услуги": 10600.0,
        "Дата Установки": "27.01.2025",
        "Проблемный": false,
        "Адрес Доставки": "Россия, Московская область, городской округ Солнечногорск, индустриальный парк Есипово, 25/1",
        "Номер Подразделения": "Мобильный 06",
        "Вид Забора": null
      },
      "geometry": {
        "type": "Point",
        "coordinates": [
          37.113136,
          56.078548
        ]
      }
    },
    {
      "type": "Feature",
      "properties": {
        "id": "7",
        "name": "Точка 7",
        "Номер": "00ЦБ-000007",
        "Сумма": 101400.0,
        "Стоимость Материала": 90700.0,
        "Стоимость Услуги": 10700.0,
        "Дата Установки": "20.01.2025",
        "Проблемный": false,
        "Адрес Доставки": "102км от МКАД Московская область г.о.Кашира д.Тарасково ул.Глебова д.19",
        "Номер Подразделения": "Мобильный 07",
        "Вид Забора": "Профнастил/3Д"
      },
      "geometry": {
        "type": "Point",
        "coordinates": [
          38.022913,
          54.820756
        ]
      }
    },
    {
      "type": "Feature",
      "properties": {
        "id": "10",
        "name": "Точка 10",
        "Номер": "00ЦБ-000010",
        "Сумма": 102000.0,
        "Стоимость Материала": 91000.0,
        "Стоимость Услуги": 11000.0,
        "Дата Установки": "23.01.2025",
        "Проблемный": false,
        "Адрес Доставки": "Россия, Московская область, городской округ Домодедово, посёлок Повадино, Садовая улица, 58",
        "Номер Подразделения": "Мобильный 10",
        "Вид Забора": null
      },
      "geometry": {
        "type": "Point",
        "coordinates": [
          37.721247,
          55.19481
        ]
      }
    },
    {
      "type": "Feature",
      "properties": {
        "id": "12",
        "name": "Точка 12",
        "Номер": "00ЦБ-000012",
        "Сумма": 102400.0,
        "Стоимость Материала": 91200.0,
        "Стоимость Услуги": 11200.0,
        "Дата Установки": "21.01.2025",
        "Проблемный": false,
        "Адрес Доставки": "Россия, Московская область, городской округ Ступино, деревня Рудины, улица Липки, 6",
        "Номер Подразделения": "Мобильный 12",
        "Вид Забора": "Профнастил"
      },
      "geometry": {
        "type": "Point",
        "coordinates": [
          37.920778,
          55.222181
        ]
      }
    },
    {
      "type": "Feature",
      "properties": {
        "id": "13",
        "name": "Точка 13",
        "Номер": "00ЦБ-000013",
        "Сумма": 102600.0,
        "Стоимость Материала": 91300.0,
        "Стоимость Услуги": 11300.0,
        "Дата Установки": "28.04.2025",
        "Проблемный": false,
        "Адрес Доставки": "Россия, Московская область, городской округ Домодедово, село Лямцино, улица Надежды, 8",
        "Номер Подразделения": "Мобильный 13",
        "Вид Забора": null
      },
      "geometry": {
        "type": "Point",
        "coordinates": [
          37.879916,
          55.383572
        ]
      }
    },
    {
      "type": "Feature",
      "properties": {
        "id": "14",
        "name": "Точка 14",
        "Номер": "00ЦБ-000014",
        "Сумма": 102800.0,
        "Стоимость Материала": 91400.0,
        "Стоимость Услуги": 11400.0,
        "Дата Установки": "10.02.2025",
        "Проблемный": false,
        "Адрес Доставки": "Россия, Московская область, городской округ Воскресенск, дачный посёлок Солнечная Долина-1, 107",
        "Номер Подразделения": "Мобильный 14",
        "Вид Забора": "Профнастил и сетка-рабица"
      },
      "geometry": {
        "type": "Point",
        "coordinates": [
          38.553877,
          55.284646
        ]
      }
    },
    {
      "type": "Feature",
      "properties": {
        "id": "17",
        "name": "Точка 17",
        "Номер": "00ЦБ-000017",
        "Сумма": 103400.0,
        "Стоимость Материала": 91700.0,
        "Стоимость Услуги": 11700.0,
        "Дата Установки": "20.01.2025",
        "Проблемный": false,
        "Адрес Доставки": "Россия, Московская область, муниципальный округ Чехов, деревня Дулово уч.40/1",
        "Номер Подразделения": "Мобильный 17",
        "Вид Забора": "Профнастил"
      },
      "geometry": {
        "type": "Point",
        "coordinates": [
          37.29567,
          55.181154
        ]
      }
    },
    {
      "type": "Feature",
      "properties": {
        "id": "18",
        "name": "Точка 18",
        "Номер": "00ЦБ-000018",
        "Сумма": 103600.0,
        "Стоимость Материала": 91800.0,
        "Стоимость Услуги": 11800.0,
        "Дата Установки": "28.01.2025",
        "Проблемный": false,
        "Адрес Доставки": "Россия, Московская область, городской округ Серпухов, деревня Шатово, территория Квартал А, 14",
        "Номер Подразделения": "Мобильный 18",
        "Вид Забора": null
      },
      "geometry": {
        "type": "Point",
        "coordinates": [
          37.252329,
          54.937661
        ]
      }
    },
    {
      "type": "Feature",
      "properties": {
        "id": "19",
        "name": "Точка 19",
        "Номер": "00ЦБ-000019",
        "Сумма": 103800.0,
        "Стоимость Материала": 91900.0,
        "Стоимость Услуги": 11900.0,
        "Дата Установки": "25.01.2025",
        "Проблемный": false,
        "Адрес Доставки": "Россия, Московская область, Пушкино, микрорайон Звягино, ул.Нелидова, д.3(заезд от железной дороги)",
        "Номер Подразделения": "Мобильный 19",
        "Вид Забора": "Профнастил"
      },
      "geometry": {
        "type": "Point",
        "coordinates": [
          37.801768,
          55.984633
        ]
      }
    },
    {
      "type": "Feature",
      "properties": {
        "id": "20",
        "name": "Точка 20",
        "Номер": "00ЦБ-000020",
        "Сумма": 104000.0,
        "Стоимость Материала": 92000.0,
        "Стоимость Услуги": 12000.0,
        "Дата Установки": "24.05.2025",
        "Проблемный": false,
        "Адрес Доставки": "73км от МКАД Владимирская обл.Киржачский р-н пос.Филипповское участок Мележи 16а",
        "Номер Подразделения": "Мобильный 20",
        "Вид Забора": "Штакетник"
      },
      "geometry": {
        "type": "Point",
        "coordinates": [
          38.659016,
          56.092712
        ]
      }
    },
    {
      "type": "Feature",
      "properties": {
        "id": "25",
        "name": "Точка 25",
        "Номер": "00ЦБ-000025",
        "Сумма": 105000.0,
        "Стоимость Материала": 92500.0,
        "Стоимость Услуги": 12500.0,
        "Дата Установки": "23.01.2025",
        "Проблемный": false,
        "Адрес Доставки": "Россия, Москва, Троицкий административный округ, Краснопахорский район, квартал № 22, 210",
        "Номер Подразделения": "Мобильный 25",
        "Вид Забора": "Профнастил"
      },
      "geometry": {
        "type": "Point",
        "coordinates": [
          37.223841,
          55.462089
        ]
      }
    },
    {
      "type": "Feature",
      "properties": {
        "id": "26",
        "name": "Точка 26",
        "Номер": "00ЦБ-000026",
        "Сумма": 105200.0,
        "Стоимость Материала": 92600.0,
        "Стоимость Услуги": 12600.0,
        "Дата Установки": "25.01.2025",
        "Проблемный": false,
        "Адрес Доставки": "Московская область, муниципальный округ Егорьевск, деревня Низкое, 2Г 110 КМ ОТ МКАД",
        "Номер Подразделения": "Мобильный 26",
        "Вид Забора": "Профнастил"
      },
      "geometry": {
        "type": "Point",
        "coordinates": [
          39.25344,
          55.411941
        ]
      }
    },
    {
      "type": "Feature",
      "properties": {
        "id": "27",
        "name": "Точка 27",
        "Номер": "00ЦБ-000027",
        "Сумма": 105400.0,
        "Стоимость Материала": 92700.0,
        "Стоимость Услуги": 12700.0,
        "Дата Установки": "28.01.2025",
        "Проблемный": false,
        "Адрес Доставки": "Россия, Московская область, городской округ Серпухов, СНТ Клеймёново-3, 3-я Восточная улица, 56Б",
        "Номер Подразделения": "Мобильный 27",
        "Вид Забора": null
      },
      "geometry": {
        "type": "Point",
        "coordinates": [
          37.321616,
          55.028933
        ]
      }
    },
    {
      "type": "Feature",
      "properties": {
        "id": "28",
        "name": "Точка 28",
        "Номер": "00ЦБ-000028",
        "Сумма": 105600.0,
        "Стоимость Материала": 92800.0,
        "Стоимость Услуги": 12800.0,
        "Дата Установки": "25.01.2025",
        "Проблемный": false,
        "Адрес Доставки": "Россия, Московская область, Сергиево-Посадский городской округ, садоводческое товарищество Парус-1, 68",
        "Номер Подразделения": "Мобильный 28",
        "Вид Забора": "Профнастил/штакет"
      },
      "geometry": {
        "type": "Point",
        "coordinates": [
          38.024527,
          56.258078
        ]
      }
    },
    {
      "type": "Feature",
      "properties": {
        "id": "30",
        "name": "Точка 30",
        "Номер": "00ЦБ-000030",
        "Сумма": 106000.0,
        "Стоимость Материала": 93000.0,
        "Стоимость Услуги": 13000.0,
        "Дата Установки": "02.05.2025",
        "Проблемный": false,
        "Адрес Доставки": "Россия, Московская область, муниципальный округ Истра , село Рождествено ул.Полевая дом 5",
        "Номер Подразделения": "Мобильный 30",
        "Вид Забора": null
      },
      "geometry": {
        "type": "Point",
        "coordinates": [
          37.04732,
          55.857595
        ]
      }
    },
    {
      "type": "Feature",
      "properties": {
        "id": "31",
        "name": "Точка 31",
        "Номер": "00ЦБ-000031",
        "Сумма": 106200.0,
        "Стоимость Материала": 93100.0,
        "Стоимость Услуги": 13100.0,
        "Дата Установки": "01.02.2025",
        "Проблемный": false,
        "Адрес Доставки": "49 км от МКАД Московская область г.о.Щелково СНТ Горизонт уч.55",
        "Номер Подразделения": "Мобильный 31",
        "Вид Забора": "Профнастил"
      },
      "geometry": {
        "type": "Point",
        "coordinates": [
          38.31082,
          56.067223
        ]
      }
    },
    {
      "type": "Feature",
      "properties": {
        "id": "35",
        "name": "Точка 35",
        "Номер": "00ЦБ-000035",
        "Сумма": 107000.0,
        "Стоимость Материала": 93500.0,
        "Стоимость Услуги": 13500.0,
        "Дата Установки": "29.01.2025",
        "Проблемный": false,
        "Адрес Доставки": "Россия, Московская область, муниципальный округ Чехов, ТСН Земляничное, 192",
        "Номер Подразделения": "Мобильный 35",
        "Вид Забора": null
      },
      "geometry": {
        "type": "Point",
        "coordinates": [
          37.578921,
          55.142647
        ]
      }
    },
    {
      "type": "Feature",
      "properties": {
        "id": "36",
        "name": "Точка 36",
        "Номер": "00ЦБ-000036",
        "Сумма": 107200.0,
        "Стоимость Материала": 93600.0,
        "Стоимость Услуги": 13600.0,
        "Дата Установки": "17.05.2025",
        "Проблемный": false,
        "Адрес Доставки": "Московская область, муниципальный округ Егорьевск, СНТ Здоровье, 60 105 КМ. ОТ МКАД",
        "Номер Подразделения": "Мобильный 36",
        "Вид Забора": "Штакет/штакет(шахматка)"
      },
      "geometry": {
        "type": "Point",
        "coordinates": [
          39.163492,
          55.428276
        ]
      }
    },
    {
      "type": "Feature",
      "properties": {
        "id": "38",
        "name": "Точка 38",
        "Номер": "00ЦБ-000038",
        "Сумма": 107600.0,
        "Стоимость Материала": 93800.0,
        "Стоимость Услуги": 13800.0,
        "Дата Установки": "20.01.2025",
        "Проблемный": false,
        "Адрес Доставки": "Россия, Московская область, городской округ Пушкинский, коттеджный посёлок Учинская роща",
        "Номер Подразделения": "Мобильный 38",
        "Вид Забора": "Профнастил"
      },
      "geometry": {
        "type": "Point",
        "coordinates": [
          37.758154,
          56.064324
        ]
      }
    },
    {
      "type": "Feature",
      "properties": {
        "id": "40",
        "name": "Точка 40",
        "Номер": "00ЦБ-000040",
        "Сумма": 108000.0,
        "Стоимость Материала": 94000.0,
        "Стоимость Услуги": 14000.0,
        "Дата Установки": "25.01.2025",
        "Проблемный": false,
        "Адрес Доставки": "Московская область Истринский городской округ кп.Нордик",
        "Номер Подразделения": "Мобильный 40",
        "Вид Забора": null
      },
      "geometry": {
        "type": "Point",
        "coordinates": [
          36.452923,
          56.005197
        ]
      }
    },
    {
      "type": "Feature",
      "properties": {
        "id": "42",
        "name": "Точка 42",
        "Номер": "00ЦБ-000042",
        "Сумма": 108400.0,
        "Стоимость Материала": 94200.0,
        "Стоимость Услуги": 14200.0,
        "Дата Установки": "24.01.2025",
        "Проблемный": false,
        "Адрес Доставки": "Россия, Московская область, городской округ Ступино, деревня Тростники, Устиновская улица, 34",
        "Номер Подразделения": "Мобильный 42",
        "Вид Забора": null
      },
      "geometry": {
        "type": "Point",
        "coordinates": [
          38.13104,
          54.961449
        ]
      }
    },
    {
      "type": "Feature",
      "properties": {
        "id": "43",
        "name": "Точка 43",
        "Номер": "00ЦБ-000043",
        "Сумма": 108600.0,
        "Стоимость Материала": 94300.0,
        "Стоимость Услуги": 14300.0,
        "Дата Установки": "31.01.2025",
        "Проблемный": false,
        "Адрес Доставки": "Россия, Московская область, Раменский муниципальный округ, деревня Литвиново, Центральная улица, 140",
        "Номер Подразделения": "Мобильный 43",
        "Вид Забора": "Профнастил"
      },
      "geometry": {
        "type": "Point",
        "coordinates": [
          38.313174,
          55.538585
        ]
      }
    },
    {
      "type": "Feature",
      "properties": {
        "id": "45",
        "name": "Точка 45",
        "Номер": "00ЦБ-000045",
        "Сумма": 109000.0,
        "Стоимость Материала": 94500.0,
        "Стоимость Услуги": 14500.0,
        "Дата Установки": "10.05.2025",
        "Проблемный": false,
        "Адрес Доставки": "Московская область, городской округ Балашиха, ПО СТ Радио, 501",
        "Номер Подразделения": "Мобильный 45",
        "Вид Забора": "Профнастил"
      },
      "geometry": {
        "type": "Point",
        "coordinates": [
          38.041932,
          55.787947
        ]
      }
    },
    {
      "type": "Feature",
      "properties": {
        "id": "49",
        "name": "Точка 49",
        "Номер": "00ЦБ-000049",
        "Сумма": 109800.0,
        "Стоимость Материала": 94900.0,
        "Стоимость Услуги": 14900.0,
        "Дата Установки": "27.01.2025",
        "Проблемный": false,
        "Адрес Доставки": "85 км от МКАД Московская область г.о.Ступино ТСН Починки-1 уч.29",
        "Номер Подразделения": "Мобильный 49",
        "Вид Забора": "Профнастил"
      },
      "geometry": {
        "type": "Point",
        "coordinates": [
          37.807665,
          54.971822
        ]
      }
    },
    {
      "type": "Feature",
      "properties": {
        "id": "50",
        "name": "Точка 50",
        "Номер": "00ЦБ-000050",
        "Сумма": 110000.0,
        "Стоимость Материала": 95000.0,
        "Стоимость Услуги": 15000.0,
        "Дата Установки": "10.05.2025",
        "Проблемный": false,
        "Адрес Доставки": "Россия, Московская область, Ступино, СНТ Металлург-3 д 8",
        "Номер Подразделения": "Мобильный 50",
        "Вид Забора": null
      },
      "geometry": {
        "type": "Point",
        "coordinates": [
          38.047856,
          54.925582
        ]
      }
    },
    {
      "type": "Feature",
      "properties": {
        "id": "52",
        "name": "Точка 52",
        "Номер": "00ЦБ-000052",
        "Сумма": 110400.0,
        "Стоимость Материала": 95200.0,
        "Стоимость Услуги": 15200.0,
        "Дата Установки": "24.05.2025",
        "Проблемный": false,
        "Адрес Доставки": "Владимирская область, муниципальное образование Петушинское, СНТ Ягодка, 65 119 КМ ОТ МКАД",
        "Номер Подразделения": "Мобильный 52",
        "Вид Забора": "Профнастил"
      },
      "geometry": {
        "type": "Point",
        "coordinates": [
          39.521058,
          55.950947
        ]
      }
    },
    {
      "type": "Feature",
      "properties": {
        "id": "56",
        "name": "Точка 56",
        "Номер": "00ЦБ-000056",
        "Сумма": 111200.0,
        "Стоимость Материала": 95600.0,
        "Стоимость Услуги": 15600.0,
        "Дата Установки": "25.01.2025",
        "Проблемный": false,
        "Адрес Доставки": "Россия, Московская область, Рузский городской округ, коттеджный посёлок Рузская долина 55.610387, 36.185519",
        "Номер Подразделения": "Мобильный 56",
        "Вид Забора": "Штакетник"
      },
      "geometry": {
        "type": "Point",
        "coordinates": [
          36.185519,
          55.610387
        ]
      }
    },
    {
      "type": "Feature",
      "properties": {
        "id": "57",
        "name": "Точка 57",
        "Номер": "00ЦБ-000057",
        "Сумма": 111400.0,
        "Стоимость Материала": 95700.0,
        "Стоимость Услуги": 15700.0,
        "Дата Установки": "10.02.2025",
        "Проблемный": false,
        "Адрес Доставки": "деревня Степаньково деревня Степаньково, городской округ Пушкинский, Московская область",
        "Номер Подразделения": "Мобильный 57",
        "Вид Забора": null
      },
      "geometry": {
        "type": "Point",
        "coordinates": [
          37.815292,
          56.065424
        ]
      }
    },
    {
      "type": "Feature",
      "properties": {
        "id": "62",
        "name": "Точка 62",
        "Номер": "00ЦБ-000062",
        "Сумма": 112400.0,
        "Стоимость Материала": 96200.0,
        "Стоимость Услуги": 16200.0,
        "Дата Установки": "24.01.2025",
        "Проблемный": false,
        "Адрес Доставки": "Россия, Московская область, городской округ Ступино, СНТ Карабасово, 41",
        "Номер Подразделения": "Мобильный 62",
        "Вид Забора": null
      },
      "geometry": {
        "type": "Point",
        "coordinates": [
          38.013051,
          55.062982
        ]
      }
    },
    {
      "type": "Feature",
      "properties": {
        "id": "63",
        "name": "Точка 63",
        "Номер": "00ЦБ-000063",
        "Сумма": 112600.0,
        "Стоимость Материала": 96300.0,
        "Стоимость Услуги": 16300.0,
        "Дата Установки": "15.03.2025",
        "Проблемный": false,
        "Адрес Доставки": "Россия, Московская область, Раменский муниципальный округ, деревня Минино, 162",
        "Номер Подразделения": "Мобильный 63",
        "Вид Забора": "Навесы"
      },
      "geometry": {
        "type": "Point",
        "coordinates": [
          38.404818,
          55.638455
        ]
      }
    },
    {
      "type": "Feature",
      "properties": {
        "id": "64",
        "name": "Точка 64",
        "Номер": "00ЦБ-000064",
        "Сумма": 112800.0,
        "Стоимость Материала": 96400.0,
        "Стоимость Услуги": 16400.0,
        "Дата Установки": "21.01.2025",
        "Проблемный": false,
        "Адрес Доставки": "Россия, Московская область, Щёлково, Фруктовый проезд, 2",
        "Номер Подразделения": "Мобильный 64",
        "Вид Забора": null
      },
      "geometry": {
        "type": "Point",
        "coordinates": [
          37.951252,
          55.921531
        ]
      }
    },
    {
      "type": "Feature",
      "properties": {
        "id": "66",
        "name": "Точка 66",
        "Номер": "00ЦБ-000066",
        "Сумма": 113200.0,
        "Стоимость Материала": 96600.0,
        "Стоимость Услуги": 16600.0,
        "Дата Установки": "28.01.2025",
        "Проблемный": false,
        "Адрес Доставки": "Московская область, Раменское, коттеджный посёлок Дергаево-3 45 КМ ОТ МКАД",
        "Номер Подразделения": "Мобильный 66",
        "Вид Забора": "Профнастил"
      },
      "geometry": {
        "type": "Point",
        "coordinates": [
          38.272952,
          55.581842
        ]
      }
    },
    {
      "type": "Feature",
      "properties": {
        "id": "67",
        "name": "Точка 67",
        "Номер": "00ЦБ-000067",
        "Сумма": 113400.0,
        "Стоимость Материала": 96700.0,
        "Стоимость Услуги": 16700.0,
        "Дата Установки": "25.01.2025",
        "Проблемный": false,
        "Адрес Доставки": "Россия, Московская область, городской округ Воскресенск, СНТ Михалёво, Берёзовая улица, 3",
        "Номер Подразделения": "Мобильный 67",
        "Вид Забора": null
      },
      "geometry": {
        "type": "Point",
        "coordinates": [
          38.442199,
          55.444742
        ]
      }
    },
    {
      "type": "Feature",
      "properties": {
        "id": "73",
        "name": "Точка 73",
        "Номер": "00ЦБ-000073",
        "Сумма": 114600.0,
        "Стоимость Материала": 97300.0,
        "Стоимость Услуги": 17300.0,
        "Дата Установки": "22.01.2025",
        "Проблемный": false,
        "Адрес Доставки": "Калужская область Жуковский район д.Трояново д.32",
        "Номер Подразделения": "Мобильный 25",
        "Вид Забора": null
      },
      "geometry": {
        "type": "Point",
        "coordinates": [
          36.92866,
          54.987268
        ]
      }
    },
    {
      "type": "Feature",
      "properties": {
        "id": "77",
        "name": "Точка 77",
        "Номер": "00ЦБ-000077",
        "Сумма": 115400.0,
        "Стоимость Материала": 97700.0,
        "Стоимость Услуги": 17700.0,
        "Дата Установки": "26.01.2025",
        "Проблемный": false,
        "Адрес Доставки": "деревня Степаньково деревня Степаньково, городской округ Пушкинский, Московская область",
        "Номер Подразделения": "Домодедовская ОП",
        "Вид Забора": null
      },
      "geometry": {
        "type": "Point",
        "coordinates": [
          37.815292,
          56.065424
        ]
      }
    },
    {
      "type": "Feature",
      "properties": {
        "id": "78",
        "name": "Точка 78",
        "Номер": "00ЦБ-000078",
        "Сумма": 115600.0,
        "Стоимость Материала": 97800.0,
        "Стоимость Услуги": 17800.0,
        "Дата Установки": "22.01.2025",
        "Проблемный": false,
        "Адрес Доставки": "Россия, Московская область, Дмитровский муниципальный округ, коттеджный посёлок Медовое",
        "Номер Подразделения": "Домодедовская ОП",
        "Вид Забора": "Профнастил"
      },
      "geometry": {
        "type": "Point",
        "coordinates": [
          37.7185,
          56.242693
        ]
      }
    },
    {
      "type": "Feature",
      "properties": {
        "id": "82",
        "name": "Точка 82",
        "Номер": "00ЦБ-000082",
        "Сумма": 116400.0,
        "Стоимость Материала": 98200.0,
        "Стоимость Услуги": 18200.0,
        "Дата Установки": "28.01.2025",
        "Проблемный": false,
        "Адрес Доставки": "Россия, Тульская область, Заокский район, сельское поселение Демидовское",
        "Номер Подразделения": "Мобильный 56",
        "Вид Забора": null
      },
      "geometry": {
        "type": "Point",
        "coordinates": [
          37.38542,
          54.596908
        ]
      }
    },
    {
      "type": "Feature",
      "properties": {
        "id": "83",
        "name": "Точка 83",
        "Номер": "00ЦБ-000083",
        "Сумма": 116600.0,
        "Стоимость Материала": 98300.0,
        "Стоимость Услуги": 18300.0,
        "Дата Установки": "12.02.2025",
        "Проблемный": true,
        "Адрес Доставки": "44 км от МКАД Московская область г.о.Домодедово д.Шишкино (Растуновский адм.окр). КП Дачная Практика 2 уч.129",
        "Номер Подразделения": "Мобильный 03",
        "Вид Забора": "Профнастил"
      },
      "geometry": {
        "type": "Point",
        "coordinates": [
          37.772595,
          55.262624
        ]
      }
    },
    {
      "type": "Feature",
      "properties": {
        "id": "84",
        "name": "Точка 84",
        "Номер": "00ЦБ-000084",
        "Сумма": 116800.0,
        "Стоимость Материала": 98400.0,
        "Стоимость Услуги": 18400.0,
        "Дата Установки": "15.05.2025",
        "Проблемный": false,
        "Адрес Доставки": "Россия, Московская область, Сергиево-Посадский городской округ, ДНП Лесная опушка, 88/111",
        "Номер Подразделения": "Мобильный 06",
        "Вид Забора": "Рабица(секции)"
      },
      "geometry": {
        "type": "Point",
        "coordinates": [
          38.386297,
          56.35147
        ]
      }
    },
    {
      "type": "Feature",
      "properties": {
        "id": "85",
        "name": "Точка 85",
        "Номер": "00ЦБ-000085",
        "Сумма": 117000.0,
        "Стоимость Материала": 98500.0,
        "Стоимость Услуги": 18500.0,
        "Дата Установки": "12.02.2025",
        "Проблемный": false,
        "Адрес Доставки": "Россия, Московская область, городской округ Коломна, село Акатьево",
        "Номер Подразделения": "Мобильный 31",
        "Вид Забора": null
      },
      "geometry": {
        "type": "Point",
        "coordinates": [
          38.755001,
          54.977377
        ]
      }
    },
    {
      "type": "Feature",
      "properties": {
        "id": "87",
        "name": "Точка 87",
        "Номер": "00ЦБ-000087",
        "Сумма": 117400.0,
        "Стоимость Материала": 98700.0,
        "Стоимость Услуги": 18700.0,
        "Дата Установки": "31.01.2025",
        "Проблемный": false,
        "Адрес Доставки": "Московская область, г.о. Щёлково, деревня Соколово, территория Соколово-1",
        "Номер Подразделения": "Румянцево ОП",
        "Вид Забора": "Профнастил и сетка-рабица"
      },
      "geometry": {
        "type": "Point",
        "coordinates": [
          38.126417,
          55.859347
        ]
      }
    },
    {
      "type": "Feature",
      "properties": {
        "id": "88",
        "name": "Точка 88",
        "Номер": "00ЦБ-000088",
        "Сумма": 117600.0,
        "Стоимость Материала": 98800.0,
        "Стоимость Услуги": 18800.0,
        "Дата Установки": "23.01.2025",
        "Проблемный": false,
        "Адрес Доставки": "Заводская улица, 7, стр.4/1. Данилов, Ярославская область",
        "Номер Подразделения": "Мобильный 25",
        "Вид Забора": null
      },
      "geometry": {
        "type": "Point",
        "coordinates": [
          40.153525,
          58.194
        ]
      }
    },
    {
      "type": "Feature",
      "properties": {
        "id": "90",
        "name": "Точка 90",
        "Номер": "00ЦБ-000090",
        "Сумма": 118000.0,
        "Стоимость Материала": 99000.0,
        "Стоимость Услуги": 19000.0,
        "Дата Установки": "26.01.2025",
        "Проблемный": false,
        "Адрес Доставки": "Россия, Москва, Новомосковский административный округ, район Внуково, посёлок Красные Горки, Заречная улица, 59А",
        "Номер Подразделения": "Мобильный 07",
        "Вид Забора": null
      },
      "geometry": {
        "type": "Point",
        "coordinates": [
          37.113428,
          55.56903
        ]
      }
    },
    {
      "type": "Feature",
      "properties": {
        "id": "91",
        "name": "Точка 91",
        "Номер": "00ЦБ-000091",
        "Сумма": 118200.0,
        "Стоимость Материала": 99100.0,
        "Стоимость Услуги": 19100.0,
        "Дата Установки": "22.02.2025",
        "Проблемный": false,
        "Адрес Доставки": "Россия, Московская область, Истра, улица Панфилова, 28",
        "Номер Подразделения": "Мобильный 29",
        "Вид Забора": null
      },
      "geometry": {
        "type": "Point",
        "coordinates": [
          36.832454,
          55.913495
        ]
      }
    },
    {
      "type": "Feature",
      "properties": {
        "id": "93",
        "name": "Точка 93",
        "Номер": "00ЦБ-000093",
        "Сумма": 118600.0,
        "Стоимость Материала": 99300.0,
        "Стоимость Услуги": 19300.0,
        "Дата Установки": "24.01.2025",
        "Проблемный": false,
        "Адрес Доставки": "Россия, Москва, Новохохловская улица, 12с2",
        "Номер Подразделения": "Домодедовская ОП",
        "Вид Забора": null
      },
      "geometry": {
        "type": "Point",
        "coordinates": [
          37.710125,
          55.731363
        ]
      }
    },
    {
      "type": "Feature",
      "properties": {
        "id": "95",
        "name": "Точка 95",
        "Номер": "00ЦБ-000095",
        "Сумма": 119000.0,
        "Стоимость Материала": 99500.0,
        "Стоимость Услуги": 19500.0,
        "Дата Установки": "05.04.2025",
        "Проблемный": false,
        "Адрес Доставки": "Россия, Московская область, муниципальный округ Шаховская, деревня Степаньково, Промышленная улица, 6",
        "Номер Подразделения": "Мобильный 07",
        "Вид Забора": null
      },
      "geometry": {
        "type": "Point",
        "coordinates": [
          35.648079,
          55.999576
        ]
      }
    },
    {
      "type": "Feature",
      "properties": {
        "id": "96",
        "name": "Точка 96",
        "Номер": "00ЦБ-000096",
        "Сумма": 119200.0,
        "Стоимость Материала": 99600.0,
        "Стоимость Услуги": 19600.0,
        "Дата Установки": "08.05.2025",
        "Проблемный": false,
        "Адрес Доставки": "Московская область, Павловский Посад, улица Гоголя, 1 61 КМ. ОТ  МКАД",
        "Номер Подразделения": "Мобильный 31",
        "Вид Забора": "Секции из сетки рабица"
      },
      "geometry": {
        "type": "Point",
        "coordinates": [
          38.682696,
          55.77355
        ]
      }
    },
    {
      "type": "Feature",
      "properties": {
        "id": "97",
        "name": "Точка 97",
        "Номер": "00ЦБ-000097",
        "Сумма": 119400.0,
        "Стоимость Материала": 99700.0,
        "Стоимость Услуги": 19700.0,
        "Дата Установки": "29.01.2025",
        "Проблемный": false,
        "Адрес Доставки": "Россия, Московская область, Ленинский городской округ, СНТ Дубрава-2, 1/11",
        "Номер Подразделения": "Мобильный 56",
        "Вид Забора": "3Д"
      },
      "geometry": {
        "type": "Point",
        "coordinates": [
          37.62104,
          55.544907
        ]
      }
    },
    {
      "type": "Feature",
      "properties": {
        "id": "100",
        "name": "Точка 100",
        "Номер": "00ЦБ-000100",
        "Сумма": 120000.0,
        "Стоимость Материала": 100000.0,
        "Стоимость Услуги": 20000.0,
        "Дата Установки": "20.01.2025",
        "Проблемный": false,
        "Адрес Доставки": "Россия, Московская область, Ленинский городской округ, деревня Сапроново, микрорайон Купелинка, квартал Северный, 1А",
        "Номер Подразделения": "Мобильный 31",
        "Вид Забора": null
      },
      "geometry": {
        "type": "Point",
        "coordinates": [
          37.719648,
          55.536313
        ]
      }
    },
    {
      "type": "Feature",
      "properties": {
        "id": "101",
        "name": "Точка 101",
        "Номер": "00ЦБ-000101",
        "Сумма": 120200.0,
        "Стоимость Материала": 100100.0,
        "Стоимость Услуги": 20100.0,
        "Дата Установки": "13.02.2025",
        "Проблемный": false,
        "Адрес Доставки": "Россия, Московская область, муниципальный округ Чехов, деревня Покров, Закатная улица",
        "Номер Подразделения": "Мобильный 07",
        "Вид Забора": "Профнастил"
      },
      "geometry": {
        "type": "Point",
        "coordinates": [
          37.432002,
          55.202383
        ]
      }
    },
    {
      "type": "Feature",
      "properties": {
        "id": "102",
        "name": "Точка 102",
        "Номер": "00ЦБ-000102",
        "Сумма": 120400.0,
        "Стоимость Материала": 100200.0,
        "Стоимость Услуги": 20200.0,
        "Дата Установки": "28.01.2025",
        "Проблемный": false,
        "Адрес Доставки": "Владимирская область, Петушинский район, муниципальное образование Пекшинское, ДНТ Династия, 179 122 КМ. ОТ МКАД",
        "Номер Подразделения": "Румянцево ОП",
        "Вид Забора": "Профнастил"
      },
      "geometry": {
        "type": "Point",
        "coordinates": [
          39.655729,
          55.967394
        ]
      }
    },
    {
      "type": "Feature",
      "properties": {
        "id": "103",
        "name": "Точка 103",
        "Номер": "00ЦБ-000103",
        "Сумма": 120600.0,
        "Стоимость Материала": 100300.0,
        "Стоимость Услуги": 20300.0,
        "Дата Установки": "19.03.2025",
        "Проблемный": false,
        "Адрес Доставки": "Россия, Московская область, Подольск, улица Рожкова, 5А",
        "Номер Подразделения": "Мобильный 25",
        "Вид Забора": null
      },
      "geometry": {
        "type": "Point",
        "coordinates": [
          37.52042,
          55.356887
        ]
      }
    },
    {
      "type": "Feature",
      "properties": {
        "id": "104",
        "name": "Точка 104",
        "Номер": "00ЦБ-000104",
        "Сумма": 120800.0,
        "Стоимость Материала": 100400.0,
        "Стоимость Услуги": 20400.0,
        "Дата Установки": "28.01.2025",
        "Проблемный": false,
        "Адрес Доставки": "Россия, Московская область, Богородский городской округ, СНТ Виктория (Кудиново), 81",
        "Номер Подразделения": "Мобильный 43",
        "Вид Забора": "Штакетник"
      },
      "geometry": {
        "type": "Point",
        "coordinates": [
          38.260191,
          55.751001
        ]
      }
    },
    {
      "type": "Feature",
      "properties": {
        "id": "105",
        "name": "Точка 105",
        "Номер": "00ЦБ-000105",
        "Сумма": 121000.0,
        "Стоимость Материала": 100500.0,
        "Стоимость Услуги": 20500.0,
        "Дата Установки": "30.01.2025",
        "Проблемный": false,
        "Адрес Доставки": "Россия, Московская область, муниципальный округ Чехов, коттеджный посёлок Ивановское ИЖС, Кузбасская улица, 15",
        "Номер Подразделения": "Мобильный 07",
        "Вид Забора": "Профнастил"
      },
      "geometry": {
        "type": "Point",
        "coordinates": [
          37.368227,
          55.159378
        ]
      }
    },
    {
      "type": "Feature",
      "properties": {
        "id": "107",
        "name": "Точка 107",
        "Номер": "00ЦБ-000107",
        "Сумма": 121400.0,
        "Стоимость Материала": 100700.0,
        "Стоимость Услуги": 20700.0,
        "Дата Установки": "28.01.2025",
        "Проблемный": false,
        "Адрес Доставки": "78 км от МКАД Московская область г.о.Ступино ТСН Семёновская уч.",
        "Номер Подразделения": "Домодедовская ОП",
        "Вид Забора": "Штакетник"
      },
      "geometry": {
        "type": "Point",
        "coordinates": [
          37.752086,
          55.074649
        ]
      }
    },
    {
      "type": "Feature",
      "properties": {
        "id": "108",
        "name": "Точка 108",
        "Номер": "00ЦБ-000108",
        "Сумма": 121600.0,
        "Стоимость Материала": 100800.0,
        "Стоимость Услуги": 20800.0,
        "Дата Установки": "05.05.2025",
        "Проблемный": false,
        "Адрес Доставки": "63км от МКАД Московская область г.о.Чехов д.Бершово уч.25",
        "Номер Подразделения": "Домодедовская ОП",
        "Вид Забора": "Навесы"
      },
      "geometry": {
        "type": "Point",
        "coordinates": [
          37.689554,
          55.105655
        ]
      }
    },
    {
      "type": "Feature",
      "properties": {
        "id": "109",
        "name": "Точка 109",
        "Номер": "00ЦБ-000109",
        "Сумма": 121800.0,
        "Стоимость Материала": 100900.0,
        "Стоимость Услуги": 20900.0,
        "Дата Установки": "22.01.2025",
        "Проблемный": false,
        "Адрес Доставки": "Россия, Тульская область, Ясногорский район, сельское поселение Иваньковское, СНП Хорошово, Озёрная улица",
        "Номер Подразделения": "Мобильный 16",
        "Вид Забора": null
      },
      "geometry": {
        "type": "Point",
        "coordinates": [
          37.935738,
          54.825317
        ]
      }
    },
    {
      "type": "Feature",
      "properties": {
        "id": "110",
        "name": "Точка 110",
        "Номер": "00ЦБ-000110",
        "Сумма": 122000.0,
        "Стоимость Материала": 101000.0,
        "Стоимость Услуги": 21000.0,
        "Дата Установки": "22.01.2025",
        "Проблемный": false,
        "Адрес Доставки": "Россия, Тульская область, Ясногорский район, сельское поселение Иваньковское, СНП Хорошово, Озёрная улица",
        "Номер Подразделения": "Мобильный 07",
        "Вид Забора": null
      },
      "geometry": {
        "type": "Point",
        "coordinates": [
          37.935738,
          54.825317
        ]
      }
    },
    {
      "type": "Feature",
      "properties": {
        "id": "111",
        "name": "Точка 111",
        "Номер": "00ЦБ-000111",
        "Сумма": 122200.0,
        "Стоимость Материала": 101100.0,
        "Стоимость Услуги": 21100.0,
        "Дата Установки": "08.02.2025",
        "Проблемный": false,
        "Адрес Доставки": "Россия, Московская область, Раменский муниципальный округ, деревня Вялки, Благодатная улица, 8",
        "Номер Подразделения": "Мобильный 31",
        "Вид Забора": null
      },
      "geometry": {
        "type": "Point",
        "coordinates": [
          38.07309,
          55.661592
        ]
      }
    },
    {
      "type": "Feature",
      "properties": {
        "id": "115",
        "name": "Точка 115",
        "Номер": "00ЦБ-000115",
        "Сумма": 123000.0,
        "Стоимость Материала": 101500.0,
        "Стоимость Услуги": 21500.0,
        "Дата Установки": "26.01.2025",
        "Проблемный": false,
        "Адрес Доставки": "27 км от МКАД Московская область пушкинский г.о. Р.П.Правдинский ДНП Правдивый Работник д.28",
        "Номер Подразделения": "Мобильный 31",
        "Вид Забора": "Профнастил/штакет"
      },
      "geometry": {
        "type": "Point",
        "coordinates": [
          37.880177,
          56.065846
        ]
      }
    },
    {
      "type": "Feature",
      "properties": {
        "id": "120",
        "name": "Точка 120",
        "Номер": "00ЦБ-000120",
        "Сумма": 124000.0,
        "Стоимость Материала": 102000.0,
        "Стоимость Услуги": 22000.0,
        "Дата Установки": "05.04.2025",
        "Проблемный": false,
        "Адрес Доставки": "Россия, Московская область, городской округ Клин, дачный посёлок Чистые Пруды",
        "Номер Подразделения": "Мобильный 07",
        "Вид Забора": null
      },
      "geometry": {
        "type": "Point",
        "coordinates": [
          36.813642,
          56.396955
        ]
      }
    },
    {
      "type": "Feature",
      "properties": {
        "id": "128",
        "name": "Точка 128",
        "Номер": "00ЦБ-000128",
        "Сумма": 125600.0,
        "Стоимость Материала": 102800.0,
        "Стоимость Услуги": 22800.0,
        "Дата Установки": "31.01.2025",
        "Проблемный": false,
        "Адрес Доставки": "Россия, Московская область, Чехов, Поселковый тупик, 5",
        "Номер Подразделения": "Мобильный 03",
        "Вид Забора": "Штакетник"
      },
      "geometry": {
        "type": "Point",
        "coordinates": [
          37.481882,
          55.149064
        ]
      }
    },
    {
      "type": "Feature",
      "properties": {
        "id": "129",
        "name": "Точка 129",
        "Номер": "00ЦБ-000129",
        "Сумма": 125800.0,
        "Стоимость Материала": 102900.0,
        "Стоимость Услуги": 22900.0,
        "Дата Установки": "08.02.2025",
        "Проблемный": false,
        "Адрес Доставки": "Россия, Московская область, городской округ Клин, коттеджный посёлок Лесная Поляна",
        "Номер Подразделения": "Мобильный 06",
        "Вид Забора": null
      },
      "geometry": {
        "type": "Point",
        "coordinates": [
          36.940209,
          56.314319
        ]
      }
    },
    {
      "type": "Feature",
      "properties": {
        "id": "132",
        "name": "Точка 132",
        "Номер": "00ЦБ-000132",
        "Сумма": 126400.0,
        "Стоимость Материала": 103200.0,
        "Стоимость Услуги": 23200.0,
        "Дата Установки": "04.03.2025",
        "Проблемный": false,
        "Адрес Доставки": "Россия, Московская область, Можайский муниципальный округ, коттеджный посёлок Родной Берег уч 27",
        "Номер Подразделения": "Румянцево ОП",
        "Вид Забора": null
      },
      "geometry": {
        "type": "Point",
        "coordinates": [
          35.649759,
          55.678275
        ]
      }
    },
    {
      "type": "Feature",
      "properties": {
        "id": "134",
        "name": "Точка 134",
        "Номер": "00ЦБ-000134",
        "Сумма": 126800.0,
        "Стоимость Материала": 103400.0,
        "Стоимость Услуги": 23400.0,
        "Дата Установки": "01.02.2025",
        "Проблемный": false,
        "Адрес Доставки": "Московская область, Богородский городской округ, СНТ Звезда 18-я улица 25 уч.37 КМ ОТ МКАД",
        "Номер Подразделения": "Мобильный 43",
        "Вид Забора": "Навесы"
      },
      "geometry": {
        "type": "Point",
        "coordinates": [
          38.288973,
          55.731693
        ]
      }
    },
    {
      "type": "Feature",
      "properties": {
        "id": "135",
        "name": "Точка 135",
        "Номер": "00ЦБ-000135",
        "Сумма": 127000.0,
        "Стоимость Материала": 103500.0,
        "Стоимость Услуги": 23500.0,
        "Дата Установки": "30.01.2025",
        "Проблемный": false,
        "Адрес Доставки": "Московская обл., г. Раменское, СНТ Мир, 3-й пр-зд, уч. 24. От мкад 40 км.",
        "Номер Подразделения": "Мобильный 07",
        "Вид Забора": "Штакет/штакет(шахматка)"
      },
      "geometry": {
        "type": "Point",
        "coordinates": [
          38.247988,
          55.567823
        ]
      }
    },
    {
      "type": "Feature",
      "properties": {
        "id": "141",
        "name": "Точка 141",
        "Номер": "00ЦБ-000141",
        "Сумма": 128200.0,
        "Стоимость Материала": 104100.0,
        "Стоимость Услуги": 24100.0,
        "Дата Установки": "28.01.2025",
        "Проблемный": false,
        "Адрес Доставки": "27 км от МКАД Московская область Пушкинский г.о.КП Учинская Роща уч.18",
        "Номер Подразделения": "Мобильный 31",
        "Вид Забора": "Профнастил"
      },
      "geometry": {
        "type": "Point",
        "coordinates": [
          37.758878,
          56.064447
        ]
      }
    },
    {
      "type": "Feature",
      "properties": {
        "id": "142",
        "name": "Точка 142",
        "Номер": "00ЦБ-000142",
        "Сумма": 128400.0,
        "Стоимость Материала": 104200.0,
        "Стоимость Услуги": 24200.0,
        "Дата Установки": "28.01.2025",
        "Проблемный": false,
        "Адрес Доставки": "27 км от МКАД Московская область Пушкинский г.о.КП Учинская Роща уч.19",
        "Номер Подразделения": "Мобильный 56",
        "Вид Забора": "Профнастил"
      },
      "geometry": {
        "type": "Point",
        "coordinates": [
          37.758878,
          56.064447
        ]
      }
    },
    {
      "type": "Feature",
      "properties": {
        "id": "144",
        "name": "Точка 144",
        "Номер": "00ЦБ-000144",
        "Сумма": 128800.0,
        "Стоимость Материала": 104400.0,
        "Стоимость Услуги": 24400.0,
        "Дата Установки": "28.01.2025",
        "Проблемный": false,
        "Адрес Доставки": "27 км от МКАД Московская область Пушкинский г.о.КП Учинская Роща уч.20",
        "Номер Подразделения": "Мобильный 06",
        "Вид Забора": "Профнастил"
      },
      "geometry": {
        "type": "Point",
        "coordinates": [
          37.758878,
          56.064447
        ]
      }
    },
    {
      "type": "Feature",
      "properties": {
        "id": "147",
        "name": "Точка 147",
        "Номер": "00ЦБ-000147",
        "Сумма": 129400.0,
        "Стоимость Материала": 104700.0,
        "Стоимость Услуги": 24700.0,
        "Дата Установки": "25.01.2025",
        "Проблемный": false,
        "Адрес Доставки": "Московская область, г.о. Сергиев Посад, СНТ Каменки, уч. 46",
        "Номер Подразделения": "Румянцево ОП",
        "Вид Забора": "Профнастил"
      },
      "geometry": {
        "type": "Point",
        "coordinates": [
          37.883034,
          56.383947
        ]
      }
    },
    {
      "type": "Feature",
      "properties": {
        "id": "149",
        "name": "Точка 149",
        "Номер": "00ЦБ-000149",
        "Сумма": 129800.0,
        "Стоимость Материала": 104900.0,
        "Стоимость Услуги": 24900.0,
        "Дата Установки": "28.01.2025",
        "Проблемный": false,
        "Адрес Доставки": "Россия, Московская область, городской округ Коломна, посёлок станции Непецино, 19",
        "Номер Подразделения": "Мобильный 43",
        "Вид Забора": null
      },
      "geometry": {
        "type": "Point",
        "coordinates": [
          38.579483,
          55.211601
        ]
      }
    },
    {
      "type": "Feature",
      "properties": {
        "id": "155",
        "name": "Точка 155",
        "Номер": "00ЦБ-000155",
        "Сумма": 131000.0,
        "Стоимость Материала": 105500.0,
        "Стоимость Услуги": 25500.0,
        "Дата Установки": "25.01.2025",
        "Проблемный": false,
        "Адрес Доставки": "93 км от МКАД Владимирская область Муниц.обр.Нагорное СНТ Ватерная Гора уч.16",
        "Номер Подразделения": "Мобильный 07",
        "Вид Забора": "Профнастил"
      },
      "geometry": {
        "type": "Point",
        "coordinates": [
          39.183408,
          55.959777
        ]
      }
    },
    {
      "type": "Feature",
      "properties": {
        "id": "157",
        "name": "Точка 157",
        "Номер": "00ЦБ-000157",
        "Сумма": 131400.0,
        "Стоимость Материала": 105700.0,
        "Стоимость Услуги": 25700.0,
        "Дата Установки": "01.02.2025",
        "Проблемный": false,
        "Адрес Доставки": "Московская область, Орехово-Зуевский городской округ, садоводческое некоммерческое товарищество Берёзка, 587 104КМ ОТ МКАД",
        "Номер Подразделения": "Мобильный 56",
        "Вид Забора": "Профлист/штакет шахматка"
      },
      "geometry": {
        "type": "Point",
        "coordinates": [
          39.197301,
          55.774552
        ]
      }
    },
    {
      "type": "Feature",
      "properties": {
        "id": "158",
        "name": "Точка 158",
        "Номер": "00ЦБ-000158",
        "Сумма": 131600.0,
        "Стоимость Материала": 105800.0,
        "Стоимость Услуги": 25800.0,
        "Дата Установки": "29.01.2025",
        "Проблемный": false,
        "Адрес Доставки": "Россия, Московская область, Домодедово, микрорайон Белые Столбы, улица Маршала Баграмяна, 14А",
        "Номер Подразделения": "Мобильный 03",
        "Вид Забора": null
      },
      "geometry": {
        "type": "Point",
        "coordinates": [
          37.866801,
          55.32685
        ]
      }
    },
    {
      "type": "Feature",
      "properties": {
        "id": "160",
        "name": "Точка 160",
        "Номер": "00ЦБ-000160",
        "Сумма": 132000.0,
        "Стоимость Материала": 106000.0,
        "Стоимость Услуги": 26000.0,
        "Дата Установки": "30.01.2025",
        "Проблемный": false,
        "Адрес Доставки": "Россия, Московская область, муниципальный округ Чехов, деревня Баранцево",
        "Номер Подразделения": "Мобильный 31",
        "Вид Забора": "Штакетник"
      },
      "geometry": {
        "type": "Point",
        "coordinates": [
          37.617637,
          55.067064
        ]
      }
    },
    {
      "type": "Feature",
      "properties": {
        "id": "163",
        "name": "Точка 163",
        "Номер": "00ЦБ-000163",
        "Сумма": 132600.0,
        "Стоимость Материала": 106300.0,
        "Стоимость Услуги": 26300.0,
        "Дата Установки": "26.01.2025",
        "Проблемный": false,
        "Адрес Доставки": "Московская область г.Серпухов Уютный проезд уч.27",
        "Номер Подразделения": "Мобильный 25",
        "Вид Забора": null
      },
      "geometry": {
        "type": "Point",
        "coordinates": [
          37.396659,
          54.954349
        ]
      }
    },
    {
      "type": "Feature",
      "properties": {
        "id": "165",
        "name": "Точка 165",
        "Номер": "00ЦБ-000165",
        "Сумма": 133000.0,
        "Стоимость Материала": 106500.0,
        "Стоимость Услуги": 26500.0,
        "Дата Установки": "24.01.2025",
        "Проблемный": false,
        "Адрес Доставки": "Московская обл., г/о Воскресенск, с. Михалёво, Загородная ул., д. 77. От мкад 60 км.",
        "Номер Подразделения": "Мобильный 07",
        "Вид Забора": "Лист/мет.штакет.шахматка"
      },
      "geometry": {
        "type": "Point",
        "coordinates": [
          38.422786,
          55.453621
        ]
      }
    },
    {
      "type": "Feature",
      "properties": {
        "id": "166",
        "name": "Точка 166",
        "Номер": "00ЦБ-000166",
        "Сумма": 133200.0,
        "Стоимость Материала": 106600.0,
        "Стоимость Услуги": 26600.0,
        "Дата Установки": "30.01.2025",
        "Проблемный": false,
        "Адрес Доставки": "63км от МКАД Московская область Богородский г.о.д.Следово ул.Пушкина д.51",
        "Номер Подразделения": "Мобильный 29",
        "Вид Забора": "Профнастил/3Д"
      },
      "geometry": {
        "type": "Point",
        "coordinates": [
          38.616912,
          55.964962
        ]
      }
    },
    {
      "type": "Feature",
      "properties": {
        "id": "169",
        "name": "Точка 169",
        "Номер": "00ЦБ-000169",
        "Сумма": 133800.0,
        "Стоимость Материала": 106900.0,
        "Стоимость Услуги": 26900.0,
        "Дата Установки": "17.05.2025",
        "Проблемный": false,
        "Адрес Доставки": "МОСКОВСКАЯ ОБЛАСТЬ ГО ШАТУРА Д. АНДРЕЕВСКИЕ ВЫСЕЛКИ Д. 77 125 КМ ОТ МКАД",
        "Номер Подразделения": "Мобильный 16",
        "Вид Забора": "Навесы"
      },
      "geometry": {
        "type": "Point",
        "coordinates": [
          39.524148,
          55.631895
        ]
      }
    },
    {
      "type": "Feature",
      "properties": {
        "id": "171",
        "name": "Точка 171",
        "Номер": "00ЦБ-000171",
        "Сумма": 134200.0,
        "Стоимость Материала": 107100.0,
        "Стоимость Услуги": 27100.0,
        "Дата Установки": "29.01.2025",
        "Проблемный": false,
        "Адрес Доставки": "Россия, Московская область, Орехово-Зуевский городской округ, деревня Соболево, Садовая улица,",
        "Номер Подразделения": "Мобильный 31",
        "Вид Забора": "Профнастил"
      },
      "geometry": {
        "type": "Point",
        "coordinates": [
          38.696629,
          55.522847
        ]
      }
    },
    {
      "type": "Feature",
      "properties": {
        "id": "173",
        "name": "Точка 173",
        "Номер": "00ЦБ-000173",
        "Сумма": 134600.0,
        "Стоимость Материала": 107300.0,
        "Стоимость Услуги": 27300.0,
        "Дата Установки": "28.01.2025",
        "Проблемный": false,
        "Адрес Доставки": "Россия, Московская область, городской округ Домодедово, деревня Степыгино, коттеджный посёлок Степыгино, 202",
        "Номер Подразделения": "Мобильный 03",
        "Вид Забора": "ОТКАТНЫЕ ВОРОТА"
      },
      "geometry": {
        "type": "Point",
        "coordinates": [
          37.694444,
          55.220208
        ]
      }
    },
    {
      "type": "Feature",
      "properties": {
        "id": "174",
        "name": "Точка 174",
        "Номер": "00ЦБ-000174",
        "Сумма": 134800.0,
        "Стоимость Материала": 107400.0,
        "Стоимость Услуги": 27400.0,
        "Дата Установки": "08.02.2025",
        "Проблемный": false,
        "Адрес Доставки": "Московская обл., Раменский муниципальный округ, СНТ Милосердие, уч. 89. От мкад 55 км.",
        "Номер Подразделения": "Мобильный 06",
        "Вид Забора": "Профнастил"
      },
      "geometry": {
        "type": "Point",
        "coordinates": [
          38.321178,
          55.479403
        ]
      }
    },
    {
      "type": "Feature",
      "properties": {
        "id": "175",
        "name": "Точка 175",
        "Номер": "00ЦБ-000175",
        "Сумма": 135000.0,
        "Стоимость Материала": 107500.0,
        "Стоимость Услуги": 27500.0,
        "Дата Установки": "29.01.2025",
        "Проблемный": false,
        "Адрес Доставки": "Россия, Московская область, городской округ Домодедово, деревня Степыгино, коттеджный посёлок Степыгино, 202",
        "Номер Подразделения": "Мобильный 31",
        "Вид Забора": "Навесы"
      },
      "geometry": {
        "type": "Point",
        "coordinates": [
          37.694444,
          55.220208
        ]
      }
    },
    {
      "type": "Feature",
      "properties": {
        "id": "176",
        "name": "Точка 176",
        "Номер": "00ЦБ-000176",
        "Сумма": 135200.0,
        "Стоимость Материала": 107600.0,
        "Стоимость Услуги": 27600.0,
        "Дата Установки": "26.01.2025",
        "Проблемный": false,
        "Адрес Доставки": "Московская область Серпуховский район д.Новая снт.Родники",
        "Номер Подразделения": "Мобильный 07",
        "Вид Забора": null
      },
      "geometry": {
        "type": "Point",
        "coordinates": [
          37.37709,
          54.991964
        ]
      }
    },
    {
      "type": "Feature",
      "properties": {
        "id": "177",
        "name": "Точка 177",
        "Номер": "00ЦБ-000177",
        "Сумма": 135400.0,
        "Стоимость Материала": 107700.0,
        "Стоимость Услуги": 27700.0,
        "Дата Установки": "26.01.2025",
        "Проблемный": false,
        "Адрес Доставки": "Россия, Московская область, городской округ Ступино, СНТ Вишенка, Грибная улица 155",
        "Номер Подразделения": "Румянцево ОП",
        "Вид Забора": null
      },
      "geometry": {
        "type": "Point",
        "coordinates": [
          37.987876,
          55.175077
        ]
      }
    },
    {
      "type": "Feature",
      "properties": {
        "id": "178",
        "name": "Точка 178",
        "Номер": "00ЦБ-000178",
        "Сумма": 135600.0,
        "Стоимость Материала": 107800.0,
        "Стоимость Услуги": 27800.0,
        "Дата Установки": "01.02.2025",
        "Проблемный": false,
        "Адрес Доставки": "Россия, Московская область, Раменский городской округ, коттеджный посёлок Салтыково парк, Коралловая улица",
        "Номер Подразделения": "Мобильный 25",
        "Вид Забора": "Горизонтальный штакет"
      },
      "geometry": {
        "type": "Point",
        "coordinates": [
          38.099042,
          55.380779
        ]
      }
    },
    {
      "type": "Feature",
      "properties": {
        "id": "179",
        "name": "Точка 179",
        "Номер": "00ЦБ-000179",
        "Сумма": 135800.0,
        "Стоимость Материала": 107900.0,
        "Стоимость Услуги": 27900.0,
        "Дата Установки": "07.02.2025",
        "Проблемный": false,
        "Адрес Доставки": "Россия, Московская область, муниципальный округ Чехов, СНТ Историк, 61",
        "Номер Подразделения": "Мобильный 43",
        "Вид Забора": "Штакетник"
      },
      "geometry": {
        "type": "Point",
        "coordinates": [
          37.188431,
          55.211122
        ]
      }
    },
    {
      "type": "Feature",
      "properties": {
        "id": "180",
        "name": "Точка 180",
        "Номер": "00ЦБ-000180",
        "Сумма": 136000.0,
        "Стоимость Материала": 108000.0,
        "Стоимость Услуги": 28000.0,
        "Дата Установки": "26.01.2025",
        "Проблемный": false,
        "Адрес Доставки": "Московская область , Наро-Фоминский гор.округ  ст Надежда",
        "Номер Подразделения": "Мобильный 07",
        "Вид Забора": null
      },
      "geometry": {
        "type": "Point",
        "coordinates": [
          36.795029,
          55.269745
        ]
      }
    },
    {
      "type": "Feature",
      "properties": {
        "id": "182",
        "name": "Точка 182",
        "Номер": "00ЦБ-000182",
        "Сумма": 136400.0,
        "Стоимость Материала": 108200.0,
        "Стоимость Услуги": 28200.0,
        "Дата Установки": "28.01.2025",
        "Проблемный": false,
        "Адрес Доставки": "Московская обл., г/о Домодедово, д. Глотаево, Южная ул., д. 18. От мкад 55 км.",
        "Номер Подразделения": "Домодедовская ОП",
        "Вид Забора": "Профнастил/мет.штакетник"
      },
      "geometry": {
        "type": "Point",
        "coordinates": [
          37.816379,
          55.16323
        ]
      }
    },
    {
      "type": "Feature",
      "properties": {
        "id": "183",
        "name": "Точка 183",
        "Номер": "00ЦБ-000183",
        "Сумма": 136600.0,
        "Стоимость Материала": 108300.0,
        "Стоимость Услуги": 28300.0,
        "Дата Установки": "22.01.2025",
        "Проблемный": false,
        "Адрес Доставки": "Россия, Московская область, муниципальный округ Истра, коттеджный посёлок Истра дом",
        "Номер Подразделения": "Домодедовская ОП",
        "Вид Забора": null
      },
      "geometry": {
        "type": "Point",
        "coordinates": [
          36.622805,
          56.007051
        ]
      }
    },
    {
      "type": "Feature",
      "properties": {
        "id": "184",
        "name": "Точка 184",
        "Номер": "00ЦБ-000184",
        "Сумма": 136800.0,
        "Стоимость Материала": 108400.0,
        "Стоимость Услуги": 28400.0,
        "Дата Установки": "17.05.2025",
        "Проблемный": false,
        "Адрес Доставки": "Россия, Московская область, городской округ Химки, квартал дачной застройки Кранкино, Лазурная улица, 20",
        "Номер Подразделения": "Мобильный 16",
        "Вид Забора": "Штакетник/Рабица"
      },
      "geometry": {
        "type": "Point",
        "coordinates": [
          37.160471,
          55.931452
        ]
      }
    },
    {
      "type": "Feature",
      "properties": {
        "id": "185",
        "name": "Точка 185",
        "Номер": "00ЦБ-000185",
        "Сумма": 137000.0,
        "Стоимость Материала": 108500.0,
        "Стоимость Услуги": 28500.0,
        "Дата Установки": "24.01.2025",
        "Проблемный": false,
        "Адрес Доставки": "102км от МКАД Московская область г.о.Кашира д.Тарасково ул.Глебова д.19",
        "Номер Подразделения": "Мобильный 07",
        "Вид Забора": "Профнастил/3Д"
      },
      "geometry": {
        "type": "Point",
        "coordinates": [
          38.022913,
          54.820756
        ]
      }
    },
    {
      "type": "Feature",
      "properties": {
        "id": "187",
        "name": "Точка 187",
        "Номер": "00ЦБ-000187",
        "Сумма": 137400.0,
        "Стоимость Материала": 108700.0,
        "Стоимость Услуги": 28700.0,
        "Дата Установки": "26.04.2025",
        "Проблемный": false,
        "Адрес Доставки": "Россия, Тверская область, Калязинский муниципальный округ, деревня Селищи (Семендяевское сельское поселение)",
        "Номер Подразделения": "Мобильный 56",
        "Вид Забора": null
      },
      "geometry": {
        "type": "Point",
        "coordinates": [
          38.028228,
          57.321538
        ]
      }
    },
    {
      "type": "Feature",
      "properties": {
        "id": "188",
        "name": "Точка 188",
        "Номер": "00ЦБ-000188",
        "Сумма": 137600.0,
        "Стоимость Материала": 108800.0,
        "Стоимость Услуги": 28800.0,
        "Дата Установки": "30.01.2025",
        "Проблемный": false,
        "Адрес Доставки": "63км от МКАД Московская область Богородский г.о.д.Следово ул.Пушкина д.51",
        "Номер Подразделения": "Мобильный 03",
        "Вид Забора": "Профнастил/3Д"
      },
      "geometry": {
        "type": "Point",
        "coordinates": [
          38.616912,
          55.964962
        ]
      }
    },
    {
      "type": "Feature",
      "properties": {
        "id": "190",
        "name": "Точка 190",
        "Номер": "00ЦБ-000190",
        "Сумма": 138000.0,
        "Стоимость Материала": 109000.0,
        "Стоимость Услуги": 29000.0,
        "Дата Установки": "31.01.2025",
        "Проблемный": false,
        "Адрес Доставки": "Московская область, Раменский муниципальный округ, деревня Захариха, Дачная улица, 15 48 КМ ОТ МКАД",
        "Номер Подразделения": "Мобильный 31",
        "Вид Забора": "Профнастил"
      },
      "geometry": {
        "type": "Point",
        "coordinates": [
          38.253184,
          55.484933
        ]
      }
    },
    {
      "type": "Feature",
      "properties": {
        "id": "192",
        "name": "Точка 192",
        "Номер": "00ЦБ-000192",
        "Сумма": 138400.0,
        "Стоимость Материала": 109200.0,
        "Стоимость Услуги": 29200.0,
        "Дата Установки": "10.02.2025",
        "Проблемный": false,
        "Адрес Доставки": "Россия, Московская область, Волоколамский муниципальный округ, коттеджный посёлок Кремлёвский",
        "Номер Подразделения": "Румянцево ОП",
        "Вид Забора": "Штакетник/Рабица"
      },
      "geometry": {
        "type": "Point",
        "coordinates": [
          36.074653,
          55.963586
        ]
      }
    },
    {
      "type": "Feature",
      "properties": {
        "id": "194",
        "name": "Точка 194",
        "Номер": "00ЦБ-000194",
        "Сумма": 138800.0,
        "Стоимость Материала": 109400.0,
        "Стоимость Услуги": 29400.0,
        "Дата Установки": "01.02.2025",
        "Проблемный": false,
        "Адрес Доставки": "Московская область, городской округ Воскресенск, ДТСН Малинки-2 участок 98 71 КМ. ОТ МКАД",
        "Номер Подразделения": "Мобильный 43",
        "Вид Забора": "Металлический штакетник"
      },
      "geometry": {
        "type": "Point",
        "coordinates": [
          38.554955,
          55.31723
        ]
      }
    },
    {
      "type": "Feature",
      "properties": {
        "id": "195",
        "name": "Точка 195",
        "Номер": "00ЦБ-000195",
        "Сумма": 139000.0,
        "Стоимость Материала": 109500.0,
        "Стоимость Услуги": 29500.0,
        "Дата Установки": "28.01.2025",
        "Проблемный": false,
        "Адрес Доставки": "Россия, Московская область, городской округ Коломна, посёлок станции Непецино, 19",
        "Номер Подразделения": "Мобильный 07",
        "Вид Забора": null
      },
      "geometry": {
        "type": "Point",
        "coordinates": [
          38.579483,
          55.211601
        ]
      }
    },
    {
      "type": "Feature",
      "properties": {
        "id": "196",
        "name": "Точка 196",
        "Номер": "00ЦБ-000196",
        "Сумма": 139200.0,
        "Стоимость Материала": 109600.0,
        "Стоимость Услуги": 29600.0,
        "Дата Установки": "30.01.2025",
        "Проблемный": false,
        "Адрес Доставки": "Московская область Солнечногорский городской округ д.Соголево кп.Соголево",
        "Номер Подразделения": "Мобильный 29",
        "Вид Забора": null
      },
      "geometry": {
        "type": "Point",
        "coordinates": [
          36.937436,
          56.355465
        ]
      }
    },
    {
      "type": "Feature",
      "properties": {
        "id": "198",
        "name": "Точка 198",
        "Номер": "00ЦБ-000198",
        "Сумма": 139600.0,
        "Стоимость Материала": 109800.0,
        "Стоимость Услуги": 29800.0,
        "Дата Установки": "02.02.2025",
        "Проблемный": false,
        "Адрес Доставки": "Россия, Московская область, городской округ Ступино, СНТ Ромашка, 82",
        "Номер Подразделения": "Домодедовская ОП",
        "Вид Забора": null
      },
      "geometry": {
        "type": "Point",
        "coordinates": [
          37.991054,
          55.110436
        ]
      }
    }
  ]
}