{
  "type": "FeatureCollection",
  "features": [
    {
      "type": "Feature",
      "properties": {
        "id": "1",
        "name": "Точка 1"
      },
      "geometry": {
        "type": "Point",
        "coordinates": [
          37.63472227509935,
          55.137941744648955
        ]
      }
    },
    {
      "type": "Feature",
      "properties": {
        "id": "2",
        "name": "Точка 2"
      },
      "geometry": {
        "type": "Point",
        "coordinates": [
          38.05855418275299,
          55.79681784098772
        ]
      }
    },
    {
      "type": "Feature",
      "properties": {
        "id": "3",
        "name": "Точка 3"
      },
      "geometry": {
        "type": "Point",
        "coordinates": [
          37.43844627970858,
          56.163755859111355
        ]
      }
    },
    {
      "type": "Feature",
      "properties": {
        "id": "4",
        "name": "Точка 4"
      },
      "geometry": {
        "type": "Point",
        "coordinates": [
          37.1522328938958,
          55.27935910649795
        ]
      }
    },
    {
      "type": "Feature",
      "properties": {
        "id": "5",
        "name": "Точка 5"
      },
      "geometry": {
        "type": "Point",
        "coordinates": [
          38.04374177072063,
          56.08353541267197
        ]
      }
    },
    {
      "type": "Feature",
      "properties": {
        "id": "6",
        "name": "Точка 6"
      },
      "geometry": {
        "type": "Point",
        "coordinates": [
          37.43402904012862,
          56.24263142942697
        ]
      }
    },
    {
      "type": "Feature",
      "properties": {
        "id": "7",
        "name": "Точка 7"
      },
      "geometry": {
        "type": "Point",
        "coordinates": [
          37.62106702998634,
          55.858761627275484
        ]
      }
    },
    {
      "type": "Feature",
      "properties": {
        "id": "8",
        "name": "Точка 8"
      },
      "geometry": {
        "type": "Point",
        "coordinates": [
          37.0554732932022,
          55.150706392985214
        ]
      }
    },
    {
      "type": "Feature",
      "properties": {
        "id": "9",
        "name": "Точка 9"
      },
      "geometry": {
        "type": "Point",
        "coordinates": [
          36.95083815021893,
          55.14747376155626
        ]
      }
    },
    {
      "type": "Feature",
      "properties": {
        "id": "10",
        "name": "Точка 10"
      },
      "geometry": {
        "type": "Point",
        "coordinates": [
          38.19846181543777,
          55.446523364107186
        ]
      }
    },
    {
      "type": "Feature",
      "properties": {
        "id": "11",
        "name": "Точка 11"
      },
      "geometry": {
        "type": "Point",
        "coordinates": [
          37.99714035528087,
          55.57817767085102
        ]
      }
    },
    {
      "type": "Feature",
      "properties": {
        "id": "12",
        "name": "Точка 12"
      },
      "geometry": {
        "type": "Point",
        "coordinates": [
          37.66321680618498,
          55.38918172855111
        ]
      }
    },
    {
      "type": "Feature",
      "properties": {
        "id": "13",
        "name": "Точка 13"
      },
      "geometry": {
        "type": "Point",
        "coordinates": [
          38.14733123156493,
          55.715563190707535
        ]
      }
    },
    {
      "type": "Feature",
      "properties": {
        "id": "14",
        "name": "Точка 14"
      },
      "geometry": {
        "type": "Point",
        "coordinates": [
          37.42276643558169,
          55.03274220357931
        ]
      }
    },
    {
      "type": "Feature",
      "properties": {
        "id": "15",
        "name": "Точка 15"
      },
      "geometry": {
        "type": "Point",
        "coordinates": [
          37.784187140223054,
          55.24698497224264
        ]
      }
    },
    {
      "type": "Feature",
      "properties": {
        "id": "16",
        "name": "Точка 16"
      },
      "geometry": {
        "type": "Point",
        "coordinates": [
          38.07684035998612,
          55.97011668306265
        ]
      }
    },
    {
      "type": "Feature",
      "properties": {
        "id": "17",
        "name": "Точка 17"
      },
      "geometry": {
        "type": "Point",
        "coordinates": [
          37.51831974787092,
          55.897201810097386
        ]
      }
    },
    {
      "type": "Feature",
      "properties": {
        "id": "18",
        "name": "Точка 18"
      },
      "geometry": {
        "type": "Point",
        "coordinates": [
          37.694352407376364,
          55.81621180558116
        ]
      }
    },
    {
      "type": "Feature",
      "properties": {
        "id": "19",
        "name": "Точка 19"
      },
      "geometry": {
        "type": "Point",
        "coordinates": [
          36.907292705944485,
          55.39705771098505
        ]
      }
    },
    {
      "type": "Feature",
      "properties": {
        "id": "20",
        "name": "Точка 20"
      },
      "geometry": {
        "type": "Point",
        "coordinates": [
          37.76672290450529,
          55.93584723161086
        ]
      }
    },
    {
      "type": "Feature",
      "properties": {
        "id": "21",
        "name": "Точка 21"
      },
      "geometry": {
        "type": "Point",
        "coordinates": [
          37.331035882208646,
          55.76572791670141
        ]
      }
    },
    {
      "type": "Feature",
      "properties": {
        "id": "22",
        "name": "Точка 22"
      },
      "geometry": {
        "type": "Point",
        "coordinates": [
          37.42850654989658,
          55.6916870272084
        ]
      }
    },
    {
      "type": "Feature",
      "properties": {
        "id": "23",
        "name": "Точка 23"
      },
      "geometry": {
        "type": "Point",
        "coordinates": [
          37.31405876553799,
          55.52784329744759
        ]
      }
    },
    {
      "type": "Feature",
      "properties": {
        "id": "24",
        "name": "Точка 24"
      },
      "geometry": {
        "type": "Point",
        "coordinates": [
          37.842416303964136,
          55.60021136520183
        ]
      }
    },
    {
      "type": "Feature",
      "properties": {
        "id": "25",
        "name": "Точка 25"
      },
      "geometry": {
        "type": "Point",
        "coordinates": [
          37.867221597259125,
          55.22817720677378
        ]
      }
    },
    {
      "type": "Feature",
      "properties": {
        "id": "26",
        "name": "Точка 26"
      },
      "geometry": {
        "type": "Point",
        "coordinates": [
          37.7474171436081,
          55.42266214037076
        ]
      }
    },
    {
      "type": "Feature",
      "properties": {
        "id": "27",
        "name": "Точка 27"
      },
      "geometry": {
        "type": "Point",
        "coordinates": [
          37.861902743017914,
          55.21991294220583
        ]
      }
    },
    {
      "type": "Feature",
      "properties": {
        "id": "28",
        "name": "Точка 28"
      },
      "geometry": {
        "type": "Point",
        "coordinates": [
          38.124211252538586,
          55.545957593285515
        ]
      }
    },
    {
      "type": "Feature",
      "properties": {
        "id": "29",
        "name": "Точка 29"
      },
      "geometry": {
        "type": "Point",
        "coordinates": [
          37.75994897077083,
          56.36143937155499
        ]
      }
    },
    {
      "type": "Feature",
      "properties": {
        "id": "30",
        "name": "Точка 30"
      },
      "geometry": {
        "type": "Point",
        "coordinates": [
          37.11157271920665,
          56.35037327160305
        ]
      }
    },
    {
      "type": "Feature",
      "properties": {
        "id": "31",
        "name": "Точка 31"
      },
      "geometry": {
        "type": "Point",
        "coordinates": [
          37.7892085193525,
          55.82333789906912
        ]
      }
    },
    {
      "type": "Feature",
      "properties": {
        "id": "32",
        "name": "Точка 32"
      },
      "geometry": {
        "type": "Point",
        "coordinates": [
          37.79169623042604,
          55.32404325404755
        ]
      }
    },
    {
      "type": "Feature",
      "properties": {
        "id": "33",
        "name": "Точка 33"
      },
      "geometry": {
        "type": "Point",
        "coordinates": [
          37.35359554245285,
          55.30956110957337
        ]
      }
    },
    {
      "type": "Feature",
      "properties": {
        "id": "34",
        "name": "Точка 34"
      },
      "geometry": {
        "type": "Point",
        "coordinates": [
          37.4847939783042,
          55.715612541654934
        ]
      }
    },
    {
      "type": "Feature",
      "properties": {
        "id": "35",
        "name": "Точка 35"
      },
      "geometry": {
        "type": "Point",
        "coordinates": [
          37.20031085730773,
          55.57900166906788
        ]
      }
    },
    {
      "type": "Feature",
      "properties": {
        "id": "36",
        "name": "Точка 36"
      },
      "geometry": {
        "type": "Point",
        "coordinates": [
          36.839320909282655,
          55.713522344488986
        ]
      }
    },
    {
      "type": "Feature",
      "properties": {
        "id": "37",
        "name": "Точка 37"
      },
      "geometry": {
        "type": "Point",
        "coordinates": [
          37.0977509492078,
          55.40257722040831
        ]
      }
    },
    {
      "type": "Feature",
      "properties": {
        "id": "38",
        "name": "Точка 38"
      },
      "geometry": {
        "type": "Point",
        "coordinates": [
          37.92906558677685,
          55.42416323807637
        ]
      }
    },
    {
      "type": "Feature",
      "properties": {
        "id": "39",
        "name": "Точка 39"
      },
      "geometry": {
        "type": "Point",
        "coordinates": [
          36.88312218332903,
          55.91630188581759
        ]
      }
    },
    {
      "type": "Feature",
      "properties": {
        "id": "40",
        "name": "Точка 40"
      },
      "geometry": {
        "type": "Point",
        "coordinates": [
          37.45438809208781,
          55.16840649931054
        ]
      }
    },
    {
      "type": "Feature",
      "properties": {
        "id": "41",
        "name": "Точка 41"
      },
      "geometry": {
        "type": "Point",
        "coordinates": [
          36.98262955842202,
          55.5054380403179
        ]
      }
    },
    {
      "type": "Feature",
      "properties": {
        "id": "42",
        "name": "Точка 42"
      },
      "geometry": {
        "type": "Point",
        "coordinates": [
          36.80824024688547,
          55.41020183049121
        ]
      }
    },
    {
      "type": "Feature",
      "properties": {
        "id": "43",
        "name": "Точка 43"
      },
      "geometry": {
        "type": "Point",
        "coordinates": [
          36.992723411675136,
          55.935310315769684
        ]
      }
    },
    {
      "type": "Feature",
      "properties": {
        "id": "44",
        "name": "Точка 44"
      },
      "geometry": {
        "type": "Point",
        "coordinates": [
          36.98543004003847,
          55.875285596551635
        ]
      }
    },
    {
      "type": "Feature",
      "properties": {
        "id": "45",
        "name": "Точка 45"
      },
      "geometry": {
        "type": "Point",
        "coordinates": [
          36.87005662181253,
          56.21189405374923
        ]
      }
    },
    {
      "type": "Feature",
      "properties": {
        "id": "46",
        "name": "Точка 46"
      },
      "geometry": {
        "type": "Point",
        "coordinates": [
          37.20303853945056,
          55.7204223814192
        ]
      }
    },
    {
      "type": "Feature",
      "properties": {
        "id": "47",
        "name": "Точка 47"
      },
      "geometry": {
        "type": "Point",
        "coordinates": [
          37.5105254489187,
          56.071239231117936
        ]
      }
    },
    {
      "type": "Feature",
      "properties": {
        "id": "48",
        "name": "Точка 48"
      },
      "geometry": {
        "type": "Point",
        "coordinates": [
          38.06468343994593,
          56.14656177411652
        ]
      }
    },
    {
      "type": "Feature",
      "properties": {
        "id": "49",
        "name": "Точка 49"
      },
      "geometry": {
        "type": "Point",
        "coordinates": [
          37.52097170720047,
          55.8200323860379
        ]
      }
    },
    {
      "type": "Feature",
      "properties": {
        "id": "50",
        "name": "Точка 50"
      },
      "geometry": {
        "type": "Point",
        "coordinates": [
          36.822716937142275,
          55.54166680372226
        ]
      }
    },
    {
      "type": "Feature",
      "properties": {
        "id": "51",
        "name": "Точка 51"
      },
      "geometry": {
        "type": "Point",
        "coordinates": [
          36.99831828705294,
          55.95277249219298
        ]
      }
    },
    {
      "type": "Feature",
      "properties": {
        "id": "52",
        "name": "Точка 52"
      },
      "geometry": {
        "type": "Point",
        "coordinates": [
          37.76604945712717,
          55.96685913187909
        ]
      }
    },
    {
      "type": "Feature",
      "properties": {
        "id": "53",
        "name": "Точка 53"
      },
      "geometry": {
        "type": "Point",
        "coordinates": [
          37.15490876105466,
          55.43255868356398
        ]
      }
    },
    {
      "type": "Feature",
      "properties": {
        "id": "54",
        "name": "Точка 54"
      },
      "geometry": {
        "type": "Point",
        "coordinates": [
          36.97876790052866,
          55.359552947323486
        ]
      }
    },
    {
      "type": "Feature",
      "properties": {
        "id": "55",
        "name": "Точка 55"
      },
      "geometry": {
        "type": "Point",
        "coordinates": [
          37.30867136820852,
          55.38263700825299
        ]
      }
    },
    {
      "type": "Feature",
      "properties": {
        "id": "56",
        "name": "Точка 56"
      },
      "geometry": {
        "type": "Point",
        "coordinates": [
          37.56521288585876,
          55.92244332085219
        ]
      }
    },
    {
      "type": "Feature",
      "properties": {
        "id": "57",
        "name": "Точка 57"
      },
      "geometry": {
        "type": "Point",
        "coordinates": [
          37.67124251028574,
          56.33839267587164
        ]
      }
    },
    {
      "type": "Feature",
      "properties": {
        "id": "58",
        "name": "Точка 58"
      },
      "geometry": {
        "type": "Point",
        "coordinates": [
          36.82272136377398,
          55.23243334228385
        ]
      }
    },
    {
      "type": "Feature",
      "properties": {
        "id": "59",
        "name": "Точка 59"
      },
      "geometry": {
        "type": "Point",
        "coordinates": [
          37.655755098327425,
          55.09199668885527
        ]
      }
    },
    {
      "type": "Feature",
      "properties": {
        "id": "60",
        "name": "Точка 60"
      },
      "geometry": {
        "type": "Point",
        "coordinates": [
          37.23266147450109,
          55.55896196893404
        ]
      }
    },
    {
      "type": "Feature",
      "properties": {
        "id": "61",
        "name": "Точка 61"
      },
      "geometry": {
        "type": "Point",
        "coordinates": [
          37.466827261722315,
          55.32812264001721
        ]
      }
    },
    {
      "type": "Feature",
      "properties": {
        "id": "62",
        "name": "Точка 62"
      },
      "geometry": {
        "type": "Point",
        "coordinates": [
          38.13433841428364,
          55.45482473546173
        ]
      }
    },
    {
      "type": "Feature",
      "properties": {
        "id": "63",
        "name": "Точка 63"
      },
      "geometry": {
        "type": "Point",
        "coordinates": [
          37.74162719500984,
          56.160113906164796
        ]
      }
    },
    {
      "type": "Feature",
      "properties": {
        "id": "64",
        "name": "Точка 64"
      },
      "geometry": {
        "type": "Point",
        "coordinates": [
          37.52242391945862,
          55.39776469077186
        ]
      }
    },
    {
      "type": "Feature",
      "properties": {
        "id": "65",
        "name": "Точка 65"
      },
      "geometry": {
        "type": "Point",
        "coordinates": [
          37.49424168938026,
          55.45117404391536
        ]
      }
    },
    {
      "type": "Feature",
      "properties": {
        "id": "66",
        "name": "Точка 66"
      },
      "geometry": {
        "type": "Point",
        "coordinates": [
          37.26767994367288,
          56.13019931283231
        ]
      }
    },
    {
      "type": "Feature",
      "properties": {
        "id": "67",
        "name": "Точка 67"
      },
      "geometry": {
        "type": "Point",
        "coordinates": [
          37.738900245577256,
          55.68591778631942
        ]
      }
    },
    {
      "type": "Feature",
      "properties": {
        "id": "68",
        "name": "Точка 68"
      },
      "geometry": {
        "type": "Point",
        "coordinates": [
          37.109683617654845,
          55.79105220399409
        ]
      }
    },
    {
      "type": "Feature",
      "properties": {
        "id": "69",
        "name": "Точка 69"
      },
      "geometry": {
        "type": "Point",
        "coordinates": [
          37.74811458210837,
          55.96329383768616
        ]
      }
    },
    {
      "type": "Feature",
      "properties": {
        "id": "70",
        "name": "Точка 70"
      },
      "geometry": {
        "type": "Point",
        "coordinates": [
          37.60390693455881,
          55.33369801573433
        ]
      }
    },
    {
      "type": "Feature",
      "properties": {
        "id": "71",
        "name": "Точка 71"
      },
      "geometry": {
        "type": "Point",
        "coordinates": [
          37.3842753225708,
          55.845115402776194
        ]
      }
    },
    {
      "type": "Feature",
      "properties": {
        "id": "72",
        "name": "Точка 72"
      },
      "geometry": {
        "type": "Point",
        "coordinates": [
          38.0218731939807,
          55.30916516679082
        ]
      }
    },
    {
      "type": "Feature",
      "properties": {
        "id": "73",
        "name": "Точка 73"
      },
      "geometry": {
        "type": "Point",
        "coordinates": [
          37.53092379237862,
          56.38570295827211
        ]
      }
    },
    {
      "type": "Feature",
      "properties": {
        "id": "74",
        "name": "Точка 74"
      },
      "geometry": {
        "type": "Point",
        "coordinates": [
          37.716307229557536,
          56.31393871652445
        ]
      }
    },
    {
      "type": "Feature",
      "properties": {
        "id": "75",
        "name": "Точка 75"
      },
      "geometry": {
        "type": "Point",
        "coordinates": [
          37.60483036899517,
          55.171297373951056
        ]
      }
    },
    {
      "type": "Feature",
      "properties": {
        "id": "76",
        "name": "Точка 76"
      },
      "geometry": {
        "type": "Point",
        "coordinates": [
          37.36733119189385,
          55.19297908685589
        ]
      }
    },
    {
      "type": "Feature",
      "properties": {
        "id": "77",
        "name": "Точка 77"
      },
      "geometry": {
        "type": "Point",
        "coordinates": [
          38.16345939858316,
          56.269127480232115
        ]
      }
    },
    {
      "type": "Feature",
      "properties": {
        "id": "78",
        "name": "Точка 78"
      },
      "geometry": {
        "type": "Point",
        "coordinates": [
          37.74212751595326,
          55.9930394488933
        ]
      }
    },
    {
      "type": "Feature",
      "properties": {
        "id": "79",
        "name": "Точка 79"
      },
      "geometry": {
        "type": "Point",
        "coordinates": [
          38.168192519318026,
          56.19816764288941
        ]
      }
    },
    {
      "type": "Feature",
      "properties": {
        "id": "80",
        "name": "Точка 80"
      },
      "geometry": {
        "type": "Point",
        "coordinates": [
          38.050322020269824,
          56.220795036200904
        ]
      }
    },
    {
      "type": "Feature",
      "properties": {
        "id": "81",
        "name": "Точка 81"
      },
      "geometry": {
        "type": "Point",
        "coordinates": [
          37.677508761762724,
          55.79933551531034
        ]
      }
    },
    {
      "type": "Feature",
      "properties": {
        "id": "82",
        "name": "Точка 82"
      },
      "geometry": {
        "type": "Point",
        "coordinates": [
          37.64496024426613,
          56.27939629001532
        ]
      }
    },
    {
      "type": "Feature",
      "properties": {
        "id": "83",
        "name": "Точка 83"
      },
      "geometry": {
        "type": "Point",
        "coordinates": [
          37.42237131971638,
          55.089350782868515
        ]
      }
    },
    {
      "type": "Feature",
      "properties": {
        "id": "84",
        "name": "Точка 84"
      },
      "geometry": {
        "type": "Point",
        "coordinates": [
          36.94259958452265,
          55.57226609632662
        ]
      }
    },
    {
      "type": "Feature",
      "properties": {
        "id": "85",
        "name": "Точка 85"
      },
      "geometry": {
        "type": "Point",
        "coordinates": [
          36.83886580974417,
          55.919836035162966
        ]
      }
    },
    {
      "type": "Feature",
      "properties": {
        "id": "86",
        "name": "Точка 86"
      },
      "geometry": {
        "type": "Point",
        "coordinates": [
          37.92196998668274,
          55.88431603126752
        ]
      }
    },
    {
      "type": "Feature",
      "properties": {
        "id": "87",
        "name": "Точка 87"
      },
      "geometry": {
        "type": "Point",
        "coordinates": [
          37.116847465307366,
          55.14618091109594
        ]
      }
    },
    {
      "type": "Feature",
      "properties": {
        "id": "88",
        "name": "Точка 88"
      },
      "geometry": {
        "type": "Point",
        "coordinates": [
          37.50762133717063,
          56.09281168519981
        ]
      }
    },
    {
      "type": "Feature",
      "properties": {
        "id": "89",
        "name": "Точка 89"
      },
      "geometry": {
        "type": "Point",
        "coordinates": [
          37.12096991243163,
          55.933556646657
        ]
      }
    },
    {
      "type": "Feature",
      "properties": {
        "id": "90",
        "name": "Точка 90"
      },
      "geometry": {
        "type": "Point",
        "coordinates": [
          37.1153084801799,
          55.69851819201497
        ]
      }
    },
    {
      "type": "Feature",
      "properties": {
        "id": "91",
        "name": "Точка 91"
      },
      "geometry": {
        "type": "Point",
        "coordinates": [
          36.83127412257368,
          55.43415487681195
        ]
      }
    },
    {
      "type": "Feature",
      "properties": {
        "id": "92",
        "name": "Точка 92"
      },
      "geometry": {
        "type": "Point",
        "coordinates": [
          37.00721820139313,
          55.82108046174944
        ]
      }
    },
    {
      "type": "Feature",
      "properties": {
        "id": "93",
        "name": "Точка 93"
      },
      "geometry": {
        "type": "Point",
        "coordinates": [
          37.05069547336137,
          55.09708280633748
        ]
      }
    },
    {
      "type": "Feature",
      "properties": {
        "id": "94",
        "name": "Точка 94"
      },
      "geometry": {
        "type": "Point",
        "coordinates": [
          36.98660796453008,
          56.26569763934272
        ]
      }
    },
    {
      "type": "Feature",
      "properties": {
        "id": "95",
        "name": "Точка 95"
      },
      "geometry": {
        "type": "Point",
        "coordinates": [
          37.57774264388429,
          55.86816832627605
        ]
      }
    },
    {
      "type": "Feature",
      "properties": {
        "id": "96",
        "name": "Точка 96"
      },
      "geometry": {
        "type": "Point",
        "coordinates": [
          37.78487205695099,
          55.65708883352769
        ]
      }
    },
    {
      "type": "Feature",
      "properties": {
        "id": "97",
        "name": "Точка 97"
      },
      "geometry": {
        "type": "Point",
        "coordinates": [
          37.958778964121095,
          56.3184427059097
        ]
      }
    },
    {
      "type": "Feature",
      "properties": {
        "id": "98",
        "name": "Точка 98"
      },
      "geometry": {
        "type": "Point",
        "coordinates": [
          37.866674812324334,
          55.72159359930617
        ]
      }
    },
    {
      "type": "Feature",
      "properties": {
        "id": "99",
        "name": "Точка 99"
      },
      "geometry": {
        "type": "Point",
        "coordinates": [
          37.56336572061457,
          56.020792854942066
        ]
      }
    },
    {
      "type": "Feature",
      "properties": {
        "id": "100",
        "name": "Точка 100"
      },
      "geometry": {
        "type": "Point",
        "coordinates": [
          37.63294761007827,
          55.546135413745894
        ]
      }
    }
  ]
}